[{"OBJECT_NAME":"OBJECT B","OBJECT_ID":"2023-189B","EPOCH":"2026-03-09T23:19:13.152000","MEAN_MOTION":15.72871024,"ECCENTRICITY":0.00049112,"INCLINATION":97.414,"RA_OF_ASC_NODE":101.6861,"ARG_OF_PERICENTER":172.6117,"MEAN_ANOMALY":187.522,"EPHEMERIS_TYPE":0,"CLASSIFICATION_TYPE":"U","NORAD_CAT_ID":58503,"ELEMENT_SET_NO":999,"REV_AT_EPOCH":12706,"BSTAR":0.00074828171,"MEAN_MOTION_DOT":0.00102221,"MEAN_MOTION_DDOT":0},{"OBJECT_NAME":"STARLINK-11434 [DTC]","OBJECT_ID":"2024-249M","EPOCH":"2026-03-09T14:22:05.267712","MEAN_MOTION":15.70813205,"ECCENTRICITY":0.0001625,"INCLINATION":42.9992,"RA_OF_ASC_NODE":168.4399,"ARG_OF_PERICENTER":272.1814,"MEAN_ANOMALY":87.8867,"EPHEMERIS_TYPE":0,"CLASSIFICATION_TYPE":"U","NORAD_CAT_ID":62420,"ELEMENT_SET_NO":999,"REV_AT_EPOCH":6946,"BSTAR":0.0020142,"MEAN_MOTION_DOT":0.0026615,"MEAN_MOTION_DDOT":0}]
